NORAD_CAT_ID,OBJECT_NAME,OBJECT_TYPE,EPOCH,MEAN_MOTION,ECCENTRICITY,INCLINATION,RA_OF_ASC_NODE,ARG_OF_PERICENTER,MEAN_ANOMALY,BSTAR,MEAN_MOTION_DOT,MEAN_MOTION_DDOT,TLE_LINE0,TLE_LINE1,TLE_LINE2,SEMIMAJOR_AXIS,PERIOD,APOGEE,PERIGEE,DECAYED
53787.0,STARLINK-4743,PAYLOAD,2023-12-07 05:27:58,15.08834867,0.0001596,53.218,10.625,81.381,278.7363,0.0010687,0.00016759,0.0,0 STARLINK-4743,1 53787U 22111Q   23341.22775958  .00016759  00000-0  10687-2 0  9997,2 53787  53.2180  10.6250 0001596  81.3810 278.7363 15.08834867 68579,6917.896,95.438,540.865,538.657,0.0
53787.0,STARLINK-4743,PAYLOAD,2023-12-07 08:38:44,15.08835922,0.0001513,53.2179,10.0298,85.6479,274.4686,0.0010308,0.00016153,0.0,0 STARLINK-4743,1 53787U 22111Q   23341.36023940  .00016153  00000-0  10308-2 0  9997,2 53787  53.2179  10.0298 0001513  85.6479 274.4686 15.08835922 69407,6917.893,95.438,540.805,538.711,0.0
53787.0,STARLINK-4743,PAYLOAD,2023-12-08 02:07:59,15.08841339,0.0001672,53.2184,6.7612,83.2726,276.8457,0.00043842,6.697e-05,0.0,0 STARLINK-4743,1 53787U 22111Q   23342.08888158  .00006697  00000-0  43842-3 0  9999,2 53787  53.2184   6.7612 0001672  83.2726 276.8457 15.08841339 68703,6917.876,95.437,540.898,538.585,0.0
53787.0,STARLINK-4743,PAYLOAD,2023-12-08 08:29:31,15.08844217,0.0001665,53.2185,5.5719,87.4599,272.6584,0.00030638,4.592e-05,0.0,0 STARLINK-4743,1 53787U 22111Q   23342.35384010  .00004592  00000-0  30638-3 0  9998,2 53787  53.2185   5.5719 0001665  87.4599 272.6584 15.08844217 69552,6917.867,95.437,540.884,538.581,0.0
53787.0,STARLINK-4743,PAYLOAD,2023-12-09 01:58:46,15.08844004,0.0001754,53.2188,2.302,89.6651,270.4542,0.00023181,3.404e-05,0.0,0 STARLINK-4743,1 53787U 22111Q   23343.08248054  .00003404  00000-0  23181-3 0  9992,2 53787  53.2188   2.3020 0001754  89.6651 270.4542 15.08844004 68853,6917.868,95.437,540.947,538.52,0.0
53787.0,STARLINK-4743,PAYLOAD,2023-12-09 11:31:04,15.08849212,0.0001717,53.2183,0.5164,90.2467,269.8722,0.00026168,3.88e-05,0.0,0 STARLINK-4743,1 53787U 22111Q   23343.47991707  .00003880  00000-0  26168-3 0  9991,2 53787  53.2183   0.5164 0001717  90.2467 269.8722 15.08849212 69724,6917.852,95.437,540.905,538.529,0.0
53787.0,STARLINK-4743,PAYLOAD,2023-12-10 00:14:10,15.08837395,0.0001845,53.2179,358.1344,94.1578,265.9625,-7.0129e-05,-1.404e-05,0.0,0 STARLINK-4743,1 53787U 22111Q   23344.00984142 -.00001404  00000-0 -70129-4 0  9995,2 53787  53.2179 358.1344 0001845  94.1578 265.9625 15.08837395 68995,6917.888,95.438,541.03,538.477,0.0
53787.0,STARLINK-4743,PAYLOAD,2023-12-11 04:51:06,15.08843311,0.0002085,53.2182,352.7782,116.221,243.8996,7.5155e-05,9.08e-06,0.0,0 STARLINK-4743,1 53787U 22111Q   23345.20215987  .00000908  00000-0  75155-4 0  9992,2 53787  53.2182 352.7782 0002085 116.2210 243.8996 15.08843311 69173,6917.87,95.437,541.178,538.293,0.0
53787.0,STARLINK-4743,PAYLOAD,2023-12-11 08:01:53,15.08842219,0.0001737,53.2178,352.1869,80.1226,279.9962,7.8446e-05,9.61e-06,0.0,0 STARLINK-4743,1 53787U 22111Q   23345.33464240  .00000961  00000-0  78446-4 0  9999,2 53787  53.2178 352.1869 0001737  80.1226 279.9962 15.08842219 70000,6917.874,95.437,540.94,538.537,0.0
53787.0,STARLINK-4743,PAYLOAD,2023-12-12 07:52:40,15.08838681,0.0001764,53.2184,347.7294,73.0177,287.1008,0.00010246,1.343e-05,0.0,0 STARLINK-4743,1 53787U 22111Q   23346.32824714  .00001343  00000-0  10246-3 0  9993,2 53787  53.2184 347.7294 0001764  73.0177 287.1008 15.08838681 69340,6917.884,95.438,540.97,538.529,0.0
53787.0,STARLINK-4743,PAYLOAD,2023-12-13 07:43:27,15.08844358,0.0001845,53.2187,343.2695,71.0114,289.1078,0.00013438,1.851e-05,0.0,0 STARLINK-4743,1 53787U 22111Q   23347.32184583  .00001851  00000-0  13438-3 0  9997,2 53787  53.2187 343.2695 0001845  71.0114 289.1078 15.08844358 70303,6917.867,95.437,541.008,538.456,0.0
53787.0,STARLINK-4743,PAYLOAD,2023-12-14 04:23:28,15.08841223,0.0001855,53.2188,339.4057,73.1196,286.9999,0.00010765,1.426e-05,0.0,0 STARLINK-4743,1 53787U 22111Q   23348.18296819  .00001426  00000-0  10765-3 0  9996,2 53787  53.2188 339.4057 0001855  73.1196 286.9999 15.08841223 69625,6917.877,95.437,541.025,538.458,0.0
53787.0,STARLINK-4743,PAYLOAD,2023-12-14 05:58:51,15.0884255,0.0001836,53.2186,339.1088,73.928,286.1914,0.00012772,1.745e-05,0.0,0 STARLINK-4743,1 53787U 22111Q   23348.24920771  .00001745  00000-0  12772-3 0  9998,2 53787  53.2186 339.1088 0001836  73.9280 286.1914 15.08842550 70440,6917.873,95.437,541.008,538.467,0.0
53787.0,STARLINK-4743,PAYLOAD,2023-12-15 05:49:38,15.08846437,0.0001671,53.2175,334.6499,83.9508,276.1674,0.00012705,1.735e-05,0.0,0 STARLINK-4743,1 53787U 22111Q   23349.24280396  .00001735  00000-0  12705-3 0  9996,2 53787  53.2175 334.6499 0001671  83.9508 276.1674 15.08846437 69780,6917.861,95.437,540.882,538.57,0.0
53787.0,STARLINK-4743,PAYLOAD,2023-12-16 04:05:02,15.08837354,0.0001781,53.2186,330.4833,113.9667,246.1512,3.6548e-05,2.94e-06,0.0,0 STARLINK-4743,1 53787U 22111Q   23350.17016813  .00000294  00000-0  36548-4 0  9992,2 53787  53.2186 330.4833 0001781 113.9667 246.1512 15.08837354 69922,6917.888,95.438,540.986,538.521,0.0
53787.0,STARLINK-4743,PAYLOAD,2023-12-17 03:55:49,15.08839097,0.0001482,53.219,326.0256,96.1741,263.942,1.863e-05,9e-08,0.0,0 STARLINK-4743,1 53787U 22111Q   23351.16376920  .00000009  00000-0  18630-4 0  9996,2 53787  53.2190 326.0256 0001482  96.1741 263.9420 15.08839097 70888,6917.883,95.438,540.773,538.723,0.0
53787.0,STARLINK-4743,PAYLOAD,2023-12-18 03:46:36,15.08854317,0.0001377,53.2175,321.5622,102.4225,257.6921,0.0002307,3.387e-05,0.0,0 STARLINK-4743,1 53787U 22111Q   23352.15736148  .00003387  00000-0  23070-3 0  9993,2 53787  53.2175 321.5622 0001377 102.4225 257.6921 15.08854317 70225,6917.837,95.437,540.654,538.749,0.0
53787.0,STARLINK-4743,PAYLOAD,2023-12-19 03:37:24,15.08826655,0.0001297,53.2176,317.1005,74.6741,285.4394,-0.00019335,-3.363e-05,0.0,0 STARLINK-4743,1 53787U 22111Q   23353.15097723 -.00003363  00000-0 -19335-3 0  9998,2 53787  53.2176 317.1005 0001297  74.6741 285.4394 15.08826655 70379,6917.921,95.438,540.683,538.889,0.0
53787.0,STARLINK-4743,PAYLOAD,2023-12-19 05:12:47,15.08829901,0.0001352,53.218,316.8021,72.7185,287.3955,-9.2177e-05,-1.754e-05,0.0,0 STARLINK-4743,1 53787U 22111Q   23353.21721899 -.00001754  00000-0 -92177-4 0  9991,2 53787  53.2180 316.8021 0001352  72.7185 287.3955 15.08829901 71193,6917.911,95.438,540.712,538.841,0.0
53787.0,STARLINK-4743,PAYLOAD,2023-12-20 03:28:11,15.08843634,0.0001394,53.2175,312.636,69.7719,290.3423,0.0002359,3.469e-05,0.0,0 STARLINK-4743,1 53787U 22111Q   23354.14457610  .00003469  00000-0  23590-3 0  9996,2 53787  53.2175 312.6360 0001394  69.7719 290.3423 15.08843634 70521,6917.869,95.437,540.699,538.77,0.0
53787.0,STARLINK-4743,PAYLOAD,2023-12-20 05:03:34,15.08850652,0.0001415,53.2178,312.3389,67.9761,292.1381,0.00040499,6.165e-05,0.0,0 STARLINK-4743,1 53787U 22111Q   23354.21081460  .00006165  00000-0  40499-3 0  9993,2 53787  53.2178 312.3389 0001415  67.9761 292.1381 15.08850652 71345,6917.848,95.437,540.692,538.734,0.0
53787.0,STARLINK-4743,PAYLOAD,2023-12-21 04:54:21,15.08869233,0.0001383,53.2169,307.8803,69.6258,290.4882,0.00085165,0.00013303,0.0,0 STARLINK-4743,1 53787U 22111Q   23355.20441009  .00013303  00000-0  85165-3 0  9993,2 53787  53.2169 307.8803 0001383  69.6258 290.4882 15.08869233 71497,6917.791,95.436,540.613,538.699,0.0
53787.0,STARLINK-4743,PAYLOAD,2023-12-22 03:09:45,15.08844449,0.0001564,53.2163,303.7234,67.9951,292.1207,0.00031986,4.807e-05,0.0,0 STARLINK-4743,1 53787U 22111Q   23356.13177465  .00004807  00000-0  31986-3 0  9999,2 53787  53.2163 303.7234 0001564  67.9951 292.1207 15.08844449 70824,6917.867,95.437,540.814,538.65,0.0
53787.0,STARLINK-4743,PAYLOAD,2023-12-23 03:00:32,15.08837979,0.0001447,53.2158,299.2649,85.2486,274.8672,8.6136e-05,1.083e-05,0.0,0 STARLINK-4743,1 53787U 22111Q   23357.12537702  .00001083  00000-0  86136-4 0  9994,2 53787  53.2158 299.2649 0001447  85.2486 274.8672 15.08837979 70972,6917.887,95.438,540.753,538.751,0.0
53787.0,STARLINK-4743,PAYLOAD,2023-12-23 06:11:18,15.08843082,0.0001572,53.2179,298.6597,87.068,273.0492,0.00012013,1.625e-05,0.0,0 STARLINK-4743,1 53787U 22111Q   23357.25785507  .00001625  00000-0  12013-3 0  9990,2 53787  53.2179 298.6597 0001572  87.0680 273.0492 15.08843082 71801,6917.871,95.437,540.823,538.648,0.0
53787.0,STARLINK-4743,PAYLOAD,2023-12-24 06:02:05,15.08845487,0.0001696,53.2178,294.1985,102.2738,257.8444,0.00025044,3.701e-05,0.0,0 STARLINK-4743,1 53787U 22111Q   23358.25145745  .00003701  00000-0  25044-3 0  9990,2 53787  53.2178 294.1985 0001696 102.2738 257.8444 15.08845487 71148,6917.864,95.437,540.902,538.555,0.0
53787.0,STARLINK-4743,PAYLOAD,2023-12-25 01:06:43,15.08841399,0.000175,53.2183,290.6292,106.9624,253.156,6.9283e-05,8.15e-06,0.0,0 STARLINK-4743,1 53787U 22111Q   23359.04633841  .00000815  00000-0  69283-4 0  9994,2 53787  53.2183 290.6292 0001750 106.9624 253.1560 15.08841399 71261,6917.876,95.437,540.952,538.53,0.0
53787.0,STARLINK-4743,PAYLOAD,2023-12-25 05:52:53,15.08842167,0.0001724,53.2182,289.7373,106.6601,253.4581,8.2565e-05,1.026e-05,0.0,0 STARLINK-4743,1 53787U 22111Q   23359.24505819  .00001026  00000-0  82565-4 0  9992,2 53787  53.2182 289.7373 0001724 106.6601 253.4581 15.08842167 72106,6917.874,95.437,540.931,538.546,0.0
53787.0,STARLINK-4743,PAYLOAD,2023-12-26 05:43:40,15.08835548,0.0001839,53.2175,285.2772,113.599,246.5196,-6.0504e-05,-1.251e-05,0.0,0 STARLINK-4743,1 53787U 22111Q   23360.23866136 -.00001251  00000-0 -60504-4 0  9996,2 53787  53.2175 285.2772 0001839 113.5990 246.5196 15.08835548 71443,6917.894,95.438,541.031,538.487,0.0
53787.0,STARLINK-4743,PAYLOAD,2023-12-27 03:59:03,15.08849096,0.0001731,53.2176,281.118,117.2042,242.9127,0.00015586,2.194e-05,0.0,0 STARLINK-4743,1 53787U 22111Q   23361.16601702  .00002194  00000-0  15586-3 0  9999,2 53787  53.2176 281.1180 0001731 117.2042 242.9127 15.08849096 71584,6917.853,95.437,540.915,538.52,0.0
